[{"OBJECT_NAME":"OBJECT B","OBJECT_ID":"2025-055B","EPOCH":"2026-03-09T22:16:45.727392","MEAN_MOTION":15.18688893,"ECCENTRICITY":0.0012288,"INCLINATION":97.6347,"RA_OF_ASC_NODE":209.4031,"ARG_OF_PERICENTER":141.9281,"MEAN_ANOMALY":218.2824,"EPHEMERIS_TYPE":0,"CLASSIFICATION_TYPE":"U","NORAD_CAT_ID":63292,"ELEMENT_SET_NO":999,"REV_AT_EPOCH":5406,"BSTAR":0.00077133198,"MEAN_MOTION_DOT":0.00015979,"MEAN_MOTION_DDOT":0},{"OBJECT_NAME":"CONNECTA IOT-11","OBJECT_ID":"2025-135AF","EPOCH":"2026-03-09T19:22:47.918784","MEAN_MOTION":15.20956963,"ECCENTRICITY":0.0001643,"INCLINATION":97.4588,"RA_OF_ASC_NODE":185.0556,"ARG_OF_PERICENTER":46.4014,"MEAN_ANOMALY":313.7358,"EPHEMERIS_TYPE":0,"CLASSIFICATION_TYPE":"U","NORAD_CAT_ID":64557,"ELEMENT_SET_NO":999,"REV_AT_EPOCH":3976,"BSTAR":0.00025659411,"MEAN_MOTION_DOT":5.614e-5,"MEAN_MOTION_DDOT":0}]
